CCSDS_OMM_VERS = 2.0
CREATION_DATE  = 
ORIGINATOR     = 

OBJECT_NAME    = SL-16 R/B
OBJECT_ID      = 1998-043G
CENTER_NAME    = EARTH
REF_FRAME      = TEME
TIME_SYSTEM    = UTC
MEAN_ELEMENT_THEORY = SGP/SGP4

EPOCH          = 2025-12-17T06:56:02.434848
MEAN_MOTION    = 14.26026725
ECCENTRICITY   = .00088061
INCLINATION    = 98.8131
RA_OF_ASC_NODE = 299.1325
ARG_OF_PERICENTER = 251.9623
MEAN_ANOMALY   = 108.0598

EPHEMERIS_TYPE = 0
CLASSIFICATION_TYPE = U
NORAD_CAT_ID   = 25400
ELEMENT_SET_NO = 999
REV_AT_EPOCH   = 42724
BSTAR          = .39817437E-4
MEAN_MOTION_DOT = .5E-6
MEAN_MOTION_DDOT = 0

CCSDS_OMM_VERS = 2.0
CREATION_DATE  = 
ORIGINATOR     = 

OBJECT_NAME    = SL-16 R/B
OBJECT_ID      = 1998-045B
CENTER_NAME    = EARTH
REF_FRAME      = TEME
TIME_SYSTEM    = UTC
MEAN_ELEMENT_THEORY = SGP/SGP4

EPOCH          = 2025-12-17T06:50:48.147936
MEAN_MOTION    = 14.16174530
ECCENTRICITY   = .0006683
INCLINATION    = 71.0115
RA_OF_ASC_NODE = 354.8674
ARG_OF_PERICENTER = 169.7790
MEAN_ANOMALY   = 190.3470

EPHEMERIS_TYPE = 0
CLASSIFICATION_TYPE = U
NORAD_CAT_ID   = 25407
ELEMENT_SET_NO = 999
REV_AT_EPOCH   = 41543
BSTAR          = .128816E-4
MEAN_MOTION_DOT = -.22E-6
MEAN_MOTION_DDOT = 0

CCSDS_OMM_VERS = 2.0
CREATION_DATE  = 
ORIGINATOR     = 

OBJECT_NAME    = ISS (ZARYA)
OBJECT_ID      = 1998-067A
CENTER_NAME    = EARTH
REF_FRAME      = TEME
TIME_SYSTEM    = UTC
MEAN_ELEMENT_THEORY = SGP/SGP4

EPOCH          = 2025-12-17T01:19:48.717408
MEAN_MOTION    = 15.49629327
ECCENTRICITY   = .00031735
INCLINATION    = 51.6309
RA_OF_ASC_NODE = 121.1077
ARG_OF_PERICENTER = 260.4156
MEAN_ANOMALY   = 99.6474

EPHEMERIS_TYPE = 0
CLASSIFICATION_TYPE = U
NORAD_CAT_ID   = 25544
ELEMENT_SET_NO = 999
REV_AT_EPOCH   = 54352
BSTAR          = .14583435E-3
MEAN_MOTION_DOT = .777E-4
MEAN_MOTION_DDOT = 0

CCSDS_OMM_VERS = 2.0
CREATION_DATE  = 
ORIGINATOR     = 

OBJECT_NAME    = CZ-4B R/B
OBJECT_ID      = 1999-025C
CENTER_NAME    = EARTH
REF_FRAME      = TEME
TIME_SYSTEM    = UTC
MEAN_ELEMENT_THEORY = SGP/SGP4

EPOCH          = 2025-12-17T02:46:50.380896
MEAN_MOTION    = 14.18244741
ECCENTRICITY   = .00364575
INCLINATION    = 98.6763
RA_OF_ASC_NODE = 32.2979
ARG_OF_PERICENTER = 221.1385
MEAN_ANOMALY   = 162.2668

EPHEMERIS_TYPE = 0
CLASSIFICATION_TYPE = U
NORAD_CAT_ID   = 25732
ELEMENT_SET_NO = 999
REV_AT_EPOCH   = 37646
BSTAR          = .53140663E-4
MEAN_MOTION_DOT = .67E-6
MEAN_MOTION_DDOT = 0

CCSDS_OMM_VERS = 2.0
CREATION_DATE  = 
ORIGINATOR     = 

OBJECT_NAME    = OKEAN-O
OBJECT_ID      = 1999-039A
CENTER_NAME    = EARTH
REF_FRAME      = TEME
TIME_SYSTEM    = UTC
MEAN_ELEMENT_THEORY = SGP/SGP4

EPOCH          = 2025-12-17T04:24:26.838144
MEAN_MOTION    = 14.80169294
ECCENTRICITY   = .00008941
INCLINATION    = 97.9599
RA_OF_ASC_NODE = 46.8469
ARG_OF_PERICENTER = 106.8225
MEAN_ANOMALY   = 253.3085

EPHEMERIS_TYPE = 0
CLASSIFICATION_TYPE = U
NORAD_CAT_ID   = 25860
ELEMENT_SET_NO = 999
REV_AT_EPOCH   = 42218
BSTAR          = .95901028E-4
MEAN_MOTION_DOT = .676E-5
MEAN_MOTION_DDOT = 0

CCSDS_OMM_VERS = 2.0
CREATION_DATE  = 
ORIGINATOR     = 

OBJECT_NAME    = SL-16 R/B
OBJECT_ID      = 1999-039B
CENTER_NAME    = EARTH
REF_FRAME      = TEME
TIME_SYSTEM    = UTC
MEAN_ELEMENT_THEORY = SGP/SGP4

EPOCH          = 2025-12-17T04:11:13.484832
MEAN_MOTION    = 14.81593052
ECCENTRICITY   = .00152697
INCLINATION    = 98.0122
RA_OF_ASC_NODE = 45.3260
ARG_OF_PERICENTER = 160.4611
MEAN_ANOMALY   = 199.7190

EPHEMERIS_TYPE = 0
CLASSIFICATION_TYPE = U
NORAD_CAT_ID   = 25861
ELEMENT_SET_NO = 999
REV_AT_EPOCH   = 42464
BSTAR          = .74384783E-4
MEAN_MOTION_DOT = .531E-5
MEAN_MOTION_DDOT = 0

CCSDS_OMM_VERS = 2.0
CREATION_DATE  = 
ORIGINATOR     = 

OBJECT_NAME    = DELTA 2 R/B
OBJECT_ID      = 1999-041E
CENTER_NAME    = EARTH
REF_FRAME      = TEME
TIME_SYSTEM    = UTC
MEAN_ELEMENT_THEORY = SGP/SGP4

EPOCH          = 2025-12-17T04:11:31.377408
MEAN_MOTION    = 14.11413152
ECCENTRICITY   = .05046078
INCLINATION    = 51.7615
RA_OF_ASC_NODE = 270.7424
ARG_OF_PERICENTER = 104.8388
MEAN_ANOMALY   = 260.8984

EPHEMERIS_TYPE = 0
CLASSIFICATION_TYPE = U
NORAD_CAT_ID   = 25876
ELEMENT_SET_NO = 999
REV_AT_EPOCH   = 35137
BSTAR          = .19765603E-3
MEAN_MOTION_DOT = .98E-5
MEAN_MOTION_DDOT = 0

CCSDS_OMM_VERS = 2.0
CREATION_DATE  = 
ORIGINATOR     = 

OBJECT_NAME    = HELIOS 1B
OBJECT_ID      = 1999-064A
CENTER_NAME    = EARTH
REF_FRAME      = TEME
TIME_SYSTEM    = UTC
MEAN_ELEMENT_THEORY = SGP/SGP4

EPOCH          = 2025-12-17T07:27:54.852192
MEAN_MOTION    = 14.87300908
ECCENTRICITY   = .00014852
INCLINATION    = 98.1757
RA_OF_ASC_NODE = 246.1122
ARG_OF_PERICENTER = 38.0094
MEAN_ANOMALY   = 322.1226

EPHEMERIS_TYPE = 0
CLASSIFICATION_TYPE = U
NORAD_CAT_ID   = 25977
ELEMENT_SET_NO = 999
REV_AT_EPOCH   = 67301
BSTAR          = .18925297E-3
MEAN_MOTION_DOT = .1649E-4
MEAN_MOTION_DDOT = 0

CCSDS_OMM_VERS = 2.0
CREATION_DATE  = 
ORIGINATOR     = 

OBJECT_NAME    = TERRA
OBJECT_ID      = 1999-068A
CENTER_NAME    = EARTH
REF_FRAME      = TEME
TIME_SYSTEM    = UTC
MEAN_ELEMENT_THEORY = SGP/SGP4

EPOCH          = 2025-12-17T07:47:11.255712
MEAN_MOTION    = 14.60907171
ECCENTRICITY   = .0003582
INCLINATION    = 97.9744
RA_OF_ASC_NODE = 42.8406
ARG_OF_PERICENTER = 85.5469
MEAN_ANOMALY   = 342.7547

EPHEMERIS_TYPE = 0
CLASSIFICATION_TYPE = U
NORAD_CAT_ID   = 25994
ELEMENT_SET_NO = 999
REV_AT_EPOCH   = 38305
BSTAR          = .96205437E-4
MEAN_MOTION_DOT = .426E-5
MEAN_MOTION_DDOT = 0

CCSDS_OMM_VERS = 2.0
CREATION_DATE  = 
ORIGINATOR     = 

OBJECT_NAME    = SL-16 R/B
OBJECT_ID      = 2000-006B
CENTER_NAME    = EARTH
REF_FRAME      = TEME
TIME_SYSTEM    = UTC
MEAN_ELEMENT_THEORY = SGP/SGP4

EPOCH          = 2025-12-17T05:00:25.822944
MEAN_MOTION    = 14.15809265
ECCENTRICITY   = .00185736
INCLINATION    = 71.0024
RA_OF_ASC_NODE = 271.2612
ARG_OF_PERICENTER = 302.6229
MEAN_ANOMALY   = 57.3101

EPHEMERIS_TYPE = 0
CLASSIFICATION_TYPE = U
NORAD_CAT_ID   = 26070
ELEMENT_SET_NO = 999
REV_AT_EPOCH   = 33688
BSTAR          = -.99402799E-4
MEAN_MOTION_DOT = -.244E-5
MEAN_MOTION_DDOT = 0

CCSDS_OMM_VERS = 2.0
CREATION_DATE  = 
ORIGINATOR     = 

OBJECT_NAME    = TITAN 4B R/B
OBJECT_ID      = 2000-047B
CENTER_NAME    = EARTH
REF_FRAME      = TEME
TIME_SYSTEM    = UTC
MEAN_ELEMENT_THEORY = SGP/SGP4

EPOCH          = 2025-12-17T06:01:13.602432
MEAN_MOTION    = 15.08815223
ECCENTRICITY   = .00386075
INCLINATION    = 67.9898
RA_OF_ASC_NODE = 272.1851
ARG_OF_PERICENTER = 139.1222
MEAN_ANOMALY   = 221.2834

EPHEMERIS_TYPE = 0
CLASSIFICATION_TYPE = U
NORAD_CAT_ID   = 26474
ELEMENT_SET_NO = 999
REV_AT_EPOCH   = 38047
BSTAR          = .18949097E-3
MEAN_MOTION_DOT = .2903E-4
MEAN_MOTION_DDOT = 0

CCSDS_OMM_VERS = 2.0
CREATION_DATE  = 
ORIGINATOR     = 

OBJECT_NAME    = ENVISAT
OBJECT_ID      = 2002-009A
CENTER_NAME    = EARTH
REF_FRAME      = TEME
TIME_SYSTEM    = UTC
MEAN_ELEMENT_THEORY = SGP/SGP4

EPOCH          = 2025-12-17T08:46:36.748704
MEAN_MOTION    = 14.39000985
ECCENTRICITY   = .0001138
INCLINATION    = 98.3607
RA_OF_ASC_NODE = 301.9891
ARG_OF_PERICENTER = 84.6063
MEAN_ANOMALY   = 28.7669

EPHEMERIS_TYPE = 0
CLASSIFICATION_TYPE = U
NORAD_CAT_ID   = 27386
ELEMENT_SET_NO = 999
REV_AT_EPOCH   = 24733
BSTAR          = .46451982E-4
MEAN_MOTION_DOT = .101E-5
MEAN_MOTION_DDOT = 0

