SL-16 R/B               
1 25400U 98043G   25351.28891707  .00000050  00000+0  39817-4 0  9999
2 25400  98.8131 299.1325 0008806 251.9623 108.0598 14.26026725427249
SL-16 R/B               
1 25407U 98045B   25351.28527949 -.00000022  00000+0  12882-4 0  9995
2 25407  71.0115 354.8674 0006683 169.7790 190.3470 14.16174530415437
ISS (ZARYA)             
1 25544U 98067A   25351.05542497  .00007770  00000+0  14583-3 0  9996
2 25544  51.6309 121.1077 0003173 260.4156  99.6474 15.49629327543529
CZ-4B R/B               
1 25732U 99025C   25351.11586089  .00000067  00000+0  53141-4 0  9998
2 25732  98.6763  32.2979 0036457 221.1385 162.2668 14.18244741376462
OKEAN-O                 
1 25860U 99039A   25351.18364396  .00000676  00000+0  95901-4 0  9993
2 25860  97.9599  46.8469 0000894 106.8225 253.3085 14.80169294422180
SL-16 R/B               
1 25861U 99039B   25351.17446163  .00000531  00000+0  74385-4 0  9999
2 25861  98.0122  45.3260 0015269 160.4611 199.7190 14.81593052424642
DELTA 2 R/B             
1 25876U 99041E   25351.17466872  .00000980  00000+0  19766-3 0  9996
2 25876  51.7615 270.7424 0504607 104.8388 260.8984 14.11413152351374
HELIOS 1B               
1 25977U 99064A   25351.31105153  .00001649  00000+0  18925-3 0  9990
2 25977  98.1757 246.1122 0001485  38.0094 322.1226 14.87300908673014
TERRA                   
1 25994U 99068A   25351.32443583  .00000426  00000+0  96205-4 0  9996
2 25994  97.9744  42.8406 0003582  85.5469 342.7547 14.60907171383057
SL-16 R/B               
1 26070U 00006B   25351.20863221 -.00000244  00000+0 -99403-4 0  9991
2 26070  71.0024 271.2612 0018573 302.6229  57.3101 14.15809265336886
TITAN 4B R/B            
1 26474U 00047B   25351.25085188  .00002903  00000+0  18949-3 0  9994
2 26474  67.9898 272.1851 0038607 139.1222 221.2834 15.08815223380471
ENVISAT                 
1 27386U 02009A   25351.36570311  .00000101  00000+0  46452-4 0  9995
2 27386  98.3607 301.9891 0001138  84.6063  28.7669 14.39000985247338
